[{"OBJECT_NAME":"BLUEBON","OBJECT_ID":"2025-009CH","EPOCH":"2026-03-09T16:52:33.225312","MEAN_MOTION":15.29047254,"ECCENTRICITY":0.00011933,"INCLINATION":97.4017,"RA_OF_ASC_NODE":152.2033,"ARG_OF_PERICENTER":43.39,"MEAN_ANOMALY":316.7434,"EPHEMERIS_TYPE":0,"CLASSIFICATION_TYPE":"U","NORAD_CAT_ID":62688,"ELEMENT_SET_NO":999,"REV_AT_EPOCH":6376,"BSTAR":0.00037313027,"MEAN_MOTION_DOT":0.00010452,"MEAN_MOTION_DDOT":0},{"OBJECT_NAME":"STARLINK-34269","OBJECT_ID":"2025-127S","EPOCH":"2026-03-09T07:34:03.578016","MEAN_MOTION":15.27595807,"ECCENTRICITY":9.079e-5,"INCLINATION":42.9955,"RA_OF_ASC_NODE":181.5617,"ARG_OF_PERICENTER":307.1563,"MEAN_ANOMALY":52.9205,"EPHEMERIS_TYPE":0,"CLASSIFICATION_TYPE":"U","NORAD_CAT_ID":64386,"ELEMENT_SET_NO":999,"REV_AT_EPOCH":4241,"BSTAR":0.001338187,"MEAN_MOTION_DOT":0.00036763,"MEAN_MOTION_DDOT":0}]
